[{"OBJECT_NAME":"TIANMU-1 22","OBJECT_ID":"2023-208D","EPOCH":"2026-03-09T22:39:05.738688","MEAN_MOTION":15.29457749,"ECCENTRICITY":0.00031332,"INCLINATION":97.4379,"RA_OF_ASC_NODE":184.9419,"ARG_OF_PERICENTER":351.9312,"MEAN_ANOMALY":8.1877,"EPHEMERIS_TYPE":0,"CLASSIFICATION_TYPE":"U","NORAD_CAT_ID":58663,"ELEMENT_SET_NO":999,"REV_AT_EPOCH":12215,"BSTAR":0.00038239675,"MEAN_MOTION_DOT":0.00010851,"MEAN_MOTION_DDOT":0},{"OBJECT_NAME":"STARLINK-31909","OBJECT_ID":"2024-084K","EPOCH":"2026-03-09T22:10:01.074720","MEAN_MOTION":15.27588132,"ECCENTRICITY":0.00023834,"INCLINATION":43.0074,"RA_OF_ASC_NODE":40.1087,"ARG_OF_PERICENTER":233.3616,"MEAN_ANOMALY":126.7017,"EPHEMERIS_TYPE":0,"CLASSIFICATION_TYPE":"U","NORAD_CAT_ID":59663,"ELEMENT_SET_NO":999,"REV_AT_EPOCH":10441,"BSTAR":-3.5387704e-5,"MEAN_MOTION_DOT":-1.237e-5,"MEAN_MOTION_DDOT":0}]
